QIANFAN-57              
1 62787U 25016C   25302.53463921  .00000073  00000+0  94062-4 0  9993
2 62787  88.9749 107.7612 0000907  86.9271 273.1984 13.50976836 41232
QIANFAN-58              
1 62788U 25016D   25302.50581659  .00000079  00000+0  10336-3 0  9997
2 62788  88.9718 107.6094 0015500 109.2551 251.0278 13.50976516 41277
QIANFAN-59              
1 62789U 25016E   25302.53049583  .00000086  00000+0  11447-3 0  9998
2 62789  88.9742 107.6700 0015846 112.6406 247.6423 13.50975916 41275
QIANFAN-60              
1 62790U 25016F   25302.48949676  .00000081  00000+0  10611-3 0  9993
2 62790  88.9723 107.6542 0017420 109.7542 250.5490 13.50972634 41257
QIANFAN-61              
1 62791U 25016G   25302.52224041  .00000080  00000+0  10443-3 0  9993
2 62791  88.9790 107.7837 0016356 108.9688 251.3238 13.50976163 41271
QIANFAN-62              
1 62792U 25016H   25302.52652111  .00000071  00000+0  91227-4 0  9997
2 62792  88.9737 107.6756 0017725 109.4423 250.8645 13.50979788 41267
QIANFAN-63              
1 62793U 25016J   25302.47704238  .00000062  00000+0  77401-4 0  9998
2 62793  88.9743 107.6292 0017729 114.4229 245.8774 13.50972994 41296
QIANFAN-64              
1 62794U 25016K   25302.51815959  .00000063  00000+0  78846-4 0  9992
2 62794  88.9730 107.6050 0015739 107.7055 252.5816 13.50974719 41295
